<?xml version="1.0" encoding="UTF-8"?> <kml xmlns="http://www.opengis.net/kml/2.2"> <Document><name>CYCLING</name><description>Samsung Health</description><Style id="healthsynccolor"> <LineStyle> <color>FF00b223</color> <width>4</width> </LineStyle> <PolyStyle> <color>0000b223</color> </PolyStyle> </Style><Placemark><name>CYCLING</name><description>Health Sync</description><styleUrl>#healthsynccolor</styleUrl><LineString><tessellate>1</tessellate><coordinates>18.757484,60.068596
18.75742,60.06862
18.757355,60.06863
18.757292,60.068638
18.757223,60.068645
18.757154,60.068653
18.75709,60.06866
18.757023,60.06867
18.756956,60.068676
18.75689,60.068684
18.756823,60.068695
18.756754,60.068703
18.756685,60.068714
18.75662,60.068726
18.75655,60.068737
18.756481,60.06875
18.75641,60.06876
18.756342,60.06877
18.756275,60.068783
18.756207,60.06879
18.756144,60.0688
18.756084,60.068817
18.75603,60.068832
18.755972,60.068848
18.75593,60.068867
18.75589,60.06889
18.755857,60.068913
18.755827,60.068935
18.755795,60.068962
18.755764,60.06899
18.75573,60.06901
18.755695,60.069035
18.755661,60.069057
18.755627,60.069077
18.755596,60.06909
18.75557,60.069107
18.755539,60.069122
18.755512,60.06914
18.75549,60.069153
18.755465,60.06917
18.755436,60.06919
18.755404,60.069206
18.755379,60.06922
18.755352,60.069237
18.755325,60.069252
18.755299,60.06927
18.755278,60.069286
18.755259,60.0693
18.75524,60.06932
18.755222,60.069336
18.75521,60.06935
18.755201,60.06937
18.75519,60.069386
18.755175,60.069393
18.75516,60.069397
18.755148,60.069397
18.75514,60.069393
18.755136,60.069386
18.755138,60.069378
18.755144,60.069366
18.755148,60.06936
18.755157,60.069347
18.75517,60.06934
18.755188,60.069332
18.755209,60.06932
18.755232,60.069313
18.755255,60.0693
18.755276,60.069294
18.755297,60.069283
18.75532,60.06927
18.755342,60.069256
18.755365,60.06925
18.755392,60.069233
18.755417,60.06922
18.755444,60.069206
18.75547,60.069187
18.755499,60.069168
18.755526,60.06915
18.755558,60.069126
18.755596,60.069103
18.75564,60.069073
18.755686,60.069046
18.755728,60.06901
18.755764,60.06898
18.755798,60.068947
18.75583,60.068913
18.755867,60.06887
18.755909,60.068832
18.755964,60.0688
18.756027,60.068775
18.7561,60.068752
18.756182,60.068737
18.75626,60.068726
18.756344,60.068718
18.756428,60.068714
18.756517,60.068714
18.756609,60.068714
18.756706,60.068707
18.756802,60.068703
18.756903,60.06869
18.757006,60.06868
18.757109,60.06867
18.757206,60.068657
18.757301,60.06865
18.757393,60.068638
18.757479,60.06863
18.757568,60.068623
18.757648,60.068615
18.757729,60.068607
18.75781,60.0686
18.757893,60.06859
18.757973,60.06858
18.758055,60.068573
18.758135,60.06856
18.758219,60.068554
18.758303,60.068542
18.758387,60.06853
18.75847,60.06852
18.758554,60.068512
18.758642,60.068497
18.75873,60.06848
18.75883,60.06847
18.758926,60.068455
18.75903,60.068443
18.75914,60.068436
18.759249,60.068424
18.759356,60.068413
18.75946,60.0684
18.759567,60.06839
18.759666,60.068382
18.759766,60.068375
18.75985,60.068367
18.759926,60.068363
18.759985,60.068363
18.760025,60.06837
18.760052,60.068382
18.760067,60.068398
18.760073,60.06841
18.760078,60.068417
18.760088,60.068413
18.760109,60.0684
18.76014,60.068386
18.760172,60.068367
18.760214,60.068344
18.760265,60.068325
18.760323,60.06831
18.760387,60.0683
18.760458,60.06829
18.76053,60.068283
18.760605,60.068275
18.760677,60.068268
18.760736,60.068256
18.760794,60.06825
18.760853,60.068253
18.760904,60.068264
18.760954,60.06828
18.760986,60.068302
18.761013,60.068333
18.761034,60.068367
18.761055,60.068405
18.761078,60.068447
18.761103,60.068493
18.761126,60.06854
18.76115,60.068584
18.761173,60.068634
18.7612,60.06868
18.76123,60.068726
18.761261,60.068775
18.761284,60.06882
18.76131,60.068867
18.761335,60.068916
18.76136,60.068962
18.761396,60.06901
18.76143,60.06906
18.761473,60.069107
18.761513,60.069153
18.761547,60.069202
18.76158,60.06925
18.761599,60.069294
18.761618,60.06934
18.761639,60.06938
18.761667,60.069427
18.761703,60.069466
18.76174,60.069504
18.761776,60.069534
18.761812,60.06956
18.761848,60.069584
18.761875,60.069607
18.761887,60.06963
18.761887,60.069653
18.76188,60.06968
18.76187,60.069702
18.76186,60.06973
18.761864,60.06976
18.761873,60.069798
18.761885,60.06985
18.761908,60.069923
18.761925,60.06998
18.761927,60.07003
18.761911,60.070076
18.76189,60.070118
18.761866,60.07016
18.761847,60.070198
18.76183,60.07024
18.76181,60.07028
18.76179,60.070316
18.761768,60.07035
18.761755,60.07039
18.761744,60.070423
18.761736,60.07046
18.761728,60.070496
18.761719,60.07053
18.76171,60.070568
18.761703,60.070606
18.761707,60.07065
18.761717,60.07069
18.761715,60.07074
18.761698,60.07079
18.761679,60.070835
18.761658,60.070877
18.761637,60.07091
18.76162,60.07095
18.76161,60.070984
18.761602,60.07102
18.761597,60.071053
18.76159,60.07109
18.761585,60.071133
18.761583,60.071175
18.761581,60.071217
18.76158,60.07126
18.761578,60.0713
18.76157,60.071342
18.761562,60.07139
18.761557,60.07143
18.761543,60.071476
18.76151,60.071514
18.761477,60.071556
18.761435,60.071587
18.761395,60.071613
18.76136,60.07164
18.761328,60.071667
18.761297,60.07169
18.761261,60.071712
18.761219,60.071735
18.761173,60.071754
18.761131,60.07177
18.761097,60.07179
18.761065,60.071808
18.761038,60.071827
18.76102,60.07185
18.761003,60.07187
18.760988,60.071884
18.760973,60.071907
18.760956,60.071926
18.760939,60.071953
18.760921,60.071976
18.760906,60.072006
18.760895,60.072033
18.760885,60.07206
18.760876,60.072083
18.760866,60.072098
18.76086,60.072117
18.760857,60.072132
18.760857,60.07215
18.760857,60.07217
18.760859,60.07219
18.760859,60.07221
18.76086,60.072227
18.760859,60.07225
18.760855,60.072277
18.760853,60.072308
18.76085,60.07234
18.760849,60.072365
18.760847,60.072395
18.760841,60.072422
18.76083,60.07245
18.76081,60.072475
18.760792,60.0725
18.760769,60.07253
18.760746,60.07256
18.760723,60.07259
18.760706,60.07262
18.760693,60.07266
18.760677,60.072697
18.760662,60.07274
18.760645,60.072777
18.760628,60.072807
18.760614,60.07284
18.760601,60.072872
18.760584,60.072903
18.760565,60.072937
18.760538,60.072968
18.760502,60.072987
18.760473,60.072994
18.76046,60.07299
18.760464,60.072975
18.760475,60.07296
18.760498,60.072937
18.760527,60.07291
18.760551,60.07288
18.760576,60.07285
18.760593,60.07282
18.76061,60.072784
18.760628,60.072754
18.760649,60.07272
18.76067,60.07268
18.760689,60.072643
18.760708,60.07261
18.760721,60.07257
18.760733,60.072536
18.76074,60.072502
18.760746,60.07247
18.760752,60.07244
18.760757,60.07241
18.760765,60.07238
18.760777,60.07235
18.760786,60.072315
18.760794,60.072285
18.760801,60.07225
18.760813,60.072212
18.760824,60.072178
18.760843,60.072136
18.760868,60.072094
18.760891,60.07205
18.76091,60.072006
18.760925,60.071968
18.76094,60.071938
18.76096,60.07191
18.760983,60.07188
18.76102,60.071854
18.76106,60.071823
18.761108,60.071793
18.761162,60.071762
18.76122,60.071728
18.761278,60.07169
18.761335,60.07165
18.761393,60.071613
18.761461,60.071564
18.76148,60.07151
18.761522,60.07145
18.761557,60.071384
18.76157,60.07133
18.761572,60.07127
18.761578,60.07121
18.76158,60.071156
18.76159,60.07111
18.761587,60.071068
18.761585,60.071026
18.761585,60.070988
18.761587,60.070946
18.761593,60.070904
18.761612,60.070854
18.76164,60.0708
18.761677,60.07074
18.761702,60.070686
18.761717,60.07064
18.761724,60.070606
18.761726,60.07057
18.76173,60.070534
18.761738,60.070496
18.761742,60.07045
18.761751,60.070408
18.761772,60.070362
18.761797,60.07032
18.761822,60.07028
18.761858,60.070236
18.7619,60.07018
18.761923,60.070118
18.761936,60.070057
18.761948,60.069996
18.761944,60.069927
18.761942,60.06986
18.761915,60.069794
18.76189,60.069736
18.761858,60.069683
18.761822,60.06963
18.761782,60.069576
18.761742,60.069523
18.761702,60.069466
18.761665,60.069416
18.761633,60.069366
18.761606,60.06932
18.76158,60.069275
18.761553,60.06923
18.761526,60.06918
18.761503,60.069134
18.76148,60.069084
18.761435,60.06903
18.761387,60.068977
18.761332,60.068935
18.761312,60.068882
18.761295,60.068832
18.761274,60.06879
18.761251,60.068752
18.76123,60.06871
18.761211,60.06867
18.76119,60.068626
18.761168,60.068584
18.761147,60.068542
18.761126,60.068504
18.761105,60.068466
18.761084,60.068428
18.761065,60.068394
18.761044,60.068363
18.761019,60.068333
18.760979,60.068314
18.760935,60.068295
18.760883,60.068283
18.760824,60.068275
18.76076,60.068275
18.760693,60.068275
18.76062,60.06828
18.760544,60.068287
18.760468,60.068295
18.760391,60.068302
18.760319,60.06831
18.760244,60.068317
18.760193,60.06832
18.760153,60.06833
18.760122,60.068333
18.760105,60.06834
18.760096,60.068348
18.760098,60.068356
18.760115,60.06836
18.760153,60.068356
18.760206,60.068348
18.760271,60.068336
18.760334,60.068325
18.760406,60.06831
18.760477,60.068295
18.760542,60.068283
18.760595,60.068275
18.760641,60.068268
18.760681,60.068264
18.760721,60.068264
18.760761,60.06826
18.7608,60.06826
18.760836,60.06826
18.760872,60.06826
18.760904,60.06826
18.760931,60.068264
18.760954,60.068268
18.760977,60.068275
18.760998,60.068287
18.761019,60.068295
18.761038,60.06831
18.761055,60.068325
18.761068,60.06834
18.761084,60.068356
18.761095,60.06837
18.761105,60.068386
18.761108,60.068405
18.761112,60.068424
18.761114,60.068443
18.76112,60.068466
18.76113,60.068493
18.761139,60.068516
18.761148,60.068542
18.761158,60.06857
18.76117,60.068596
18.76118,60.068623
18.761196,60.068653
18.761204,60.06868
18.761208,60.068707
18.761213,60.068726
18.76122,60.06875
18.761227,60.068768
18.761238,60.068787
18.761253,60.06881
18.76127,60.06883
18.761286,60.068848
18.761303,60.06887
18.76132,60.06889
18.761333,60.06891
18.76135,60.06893
18.761364,60.06895
18.761377,60.068966
18.76139,60.068985
18.761404,60.069004
18.761417,60.069027
18.76143,60.069046
18.761448,60.06907
18.761463,60.06909
18.761477,60.069115
18.761492,60.069138
18.761505,60.069157
18.761522,60.069183
18.761538,60.069206
18.761553,60.06923
18.76157,60.069252
18.76159,60.069275
18.761606,60.069298
18.761621,60.06932
18.761635,60.069344
18.761652,60.06937
18.761671,60.069397
18.761698,60.069424
18.761724,60.069447
18.761747,60.06947
18.761766,60.069496
18.761782,60.069523
18.76179,60.069546
18.761787,60.06956
18.761782,60.06957
18.761774,60.069572
18.761768,60.06957
18.76176,60.069557
18.761755,60.069546
18.76175,60.06953
18.761745,60.06951
18.76174,60.069492
18.761732,60.06947
18.76172,60.069447
18.761707,60.069424
18.761692,60.0694
18.761679,60.069378
18.761663,60.06936
18.76165,60.069336
18.761639,60.069317
18.761625,60.069294
18.761614,60.069275
18.7616,60.069252
18.76159,60.069233
18.761578,60.069214
18.761564,60.069195
18.761553,60.069176
18.761541,60.069157
18.76153,60.069138
18.761518,60.06912
18.761507,60.0691
18.761496,60.06908
18.761482,60.06906
18.76147,60.069042
18.761457,60.06902
18.761444,60.069
18.76143,60.068985
18.76142,60.068966
18.761408,60.06895
18.761396,60.068935
18.761389,60.06892
18.761383,60.06891
18.76138,60.068897
18.761374,60.068886
18.761368,60.068874
18.76136,60.068863
18.76135,60.06885
18.761341,60.068844
18.761332,60.068832
18.76132,60.068817
18.761305,60.068806
18.76129,60.068794
18.761272,60.06878
18.761255,60.06876
18.76124,60.068745
18.761229,60.068726
18.76122,60.068703
18.761213,60.068684
18.76121,60.06867
18.761208,60.068653
18.761208,60.068638
18.761208,60.068623
18.761208,60.06861
18.761208,60.0686
18.761208,60.06859
18.761208,60.068577
18.761208,60.06856
18.761208,60.06855
18.761206,60.068535
18.761202,60.068516
18.761194,60.0685
18.761187,60.06848
18.761179,60.068462
18.761171,60.068447
18.76116,60.068428
18.761148,60.06841
18.761135,60.06839
18.761122,60.068375
18.761108,60.06836
18.761097,60.068348
18.761086,60.068333
18.76108,60.068317
18.761072,60.068306
18.761066,60.06829
18.76106,60.068275
18.761055,60.068264
18.761047,60.068256
18.76104,60.06825
18.761028,60.068245
18.761017,60.06824
18.761003,60.06824
18.76099,60.068237
18.760975,60.068237
18.760956,60.06824
18.760937,60.06824
18.76092,60.068245
18.7609,60.06825
18.76088,60.068253
18.76086,60.068256
18.760841,60.06826
18.760822,60.068268
18.760801,60.06827
18.76078,60.068275
18.76076,60.06828
18.760736,60.06828
18.760715,60.068283
18.76069,60.068287
18.760664,60.068287
18.760633,60.06829
18.760603,60.06829
18.760572,60.068295
18.76054,60.068295
18.760508,60.0683
18.760475,60.068302
18.760443,60.068306
18.760412,60.068314
18.760384,60.068317
18.760353,60.068325
18.760324,60.06833
18.760294,60.068333
18.760267,60.06834
18.76024,60.068344
18.760216,60.068348
18.760193,60.06835
18.760172,60.068356
18.760157,60.068363
18.760141,60.06837
18.76013,60.068382
18.760118,60.06839
18.760113,60.068398
18.760109,60.06841
18.760109,60.068417
18.760107,60.06842
18.76011,60.06842
18.760117,60.06842
18.760122,60.068417
18.76013,60.06841
18.760138,60.0684
18.760145,60.068394
18.760155,60.068386
18.760164,60.068375
18.760176,60.06837
18.76019,60.068363
18.760202,60.068356
18.760223,60.06835
18.76024,60.06835
18.760265,60.068348
18.760288,60.068344
18.760313,60.06834
18.760338,60.06834
18.760363,60.068336
18.760386,60.068336
18.76041,60.068333
18.760431,60.06833
18.760454,60.06833
18.760475,60.06833
18.760496,60.068325
18.760515,60.068325
18.760536,60.06832
18.760553,60.068317
18.760572,60.068317
18.76058,60.068314
18.76058,60.06831
18.76057,60.068306
18.760551,60.068302
18.760523,60.068302
18.760523,60.068302
18.760466,60.0683
18.760426,60.0683
18.760378,60.068302
18.76033,60.068306
18.760284,60.068314
18.760246,60.068317
18.760218,60.068325
18.760218,60.06833
18.760218,60.068333
18.760233,60.068336
18.760263,60.068336
18.760305,60.068336
18.760351,60.068333
18.760403,60.06833
18.760454,60.068325
18.760508,60.06832
18.76056,60.068317
18.760605,60.068314
18.760647,60.06831
18.760674,60.06831
18.760695,60.068306
18.760714,60.0683
18.760738,60.06829
18.760769,60.068275
18.760803,60.06826
18.760836,60.06824
18.760874,60.068222
18.76091,60.068203
18.760939,60.068184
18.76096,60.06817
18.760975,60.068157
18.760986,60.068146
18.760998,60.068134
18.761002,60.068123
18.761007,60.06811
18.76101,60.0681
18.76101,60.068085
18.761007,60.06807
18.761005,60.06805
18.761002,60.06803
18.761,60.068012
18.760996,60.067997
18.760992,60.067978
18.760988,60.06796
18.760984,60.06794
18.76098,60.067924
18.760977,60.067905
18.760973,60.067886
18.760967,60.067867
18.760962,60.06785
18.760956,60.067825
18.76095,60.067806
18.760944,60.067787
18.76094,60.067764
18.760937,60.06774
18.760931,60.067722
18.760927,60.0677
18.760923,60.06768
18.760918,60.067657
18.760914,60.067635
18.76091,60.06761
18.760904,60.06759
18.7609,60.067566
18.760897,60.067543
18.76089,60.06752
18.760885,60.067497
18.760878,60.067474
18.760872,60.06745
18.760864,60.06743
18.760859,60.067406
18.76085,60.067383
18.760841,60.06736
18.760834,60.067337
18.760826,60.067314
18.760817,60.06729
18.760807,60.067265
18.760798,60.06724
18.76079,60.06722
18.760782,60.067192
18.760773,60.06717
18.760763,60.067142
18.760757,60.06712
18.760752,60.067093
18.760744,60.06707
18.76074,60.067043
18.760735,60.067017
18.76073,60.06699
18.760727,60.066967
18.760725,60.066944
18.760721,60.06692
18.760717,60.066895
18.760714,60.06687
18.760712,60.06685
18.76071,60.066826
18.760706,60.066807
18.760702,60.066784
18.7607,60.06676
18.760695,60.066742
18.760693,60.06672
18.760687,60.0667
18.760681,60.06668
18.76068,60.066658
18.760672,60.066643
18.760668,60.066624
18.760662,60.0666
18.760656,60.066586
18.76065,60.066566
18.760645,60.066547
18.760637,60.06653
18.760632,60.066513
18.760628,60.066498
18.760622,60.06648
18.760618,60.066463
18.760612,60.06645
18.760607,60.066433
18.7606,60.066414
18.760593,60.0664
18.760588,60.066383
18.760586,60.066364
18.760582,60.06635
18.760578,60.066338
18.760576,60.066322
18.760572,60.066307
18.76057,60.06629
18.760565,60.066277
18.760563,60.066265
18.760557,60.06625
18.760551,60.066235
18.760544,60.066216
18.760538,60.0662
18.76053,60.06618
18.76052,60.066162
18.760515,60.066147
18.760508,60.066128
18.7605,60.06611
18.76049,60.06609
18.760483,60.06607
18.760473,60.06605
18.760464,60.066032
18.760454,60.066017
18.760445,60.065998
18.760435,60.065983
18.760424,60.065968
18.760412,60.065952
18.760403,60.06594
18.76039,60.06593
18.760378,60.065918
18.760366,60.065903
18.760357,60.06589
18.760345,60.065876
18.760336,60.06586
18.760324,60.06585
18.760313,60.065838
18.760302,60.065826
18.760292,60.06581
18.760283,60.0658
18.760273,60.065784
18.760263,60.065765
18.760254,60.06575
18.760244,60.06573
18.760235,60.065712
18.760225,60.065693
18.760214,60.065674
18.760202,60.065655
18.760191,60.065636
18.76018,60.065617
18.760168,60.065598
18.760155,60.06558
18.760143,60.065563
18.76013,60.065544
18.760118,60.06553
18.760107,60.065514
18.760094,60.0655
18.76008,60.065483
18.760067,60.065468
18.760054,60.065453
18.760036,60.065437
18.760017,60.065422
18.759996,60.065403
18.759975,60.065388
18.75995,60.06537
18.759932,60.06535
18.759912,60.065334
18.759893,60.06532
18.759872,60.065304
18.75985,60.065285
18.759829,60.065266
18.759806,60.065247
18.759785,60.065228
18.759762,60.06521
18.75974,60.06519
18.75972,60.06517
18.759699,60.06515
18.759678,60.065136
18.759659,60.065125
18.759642,60.06511
18.759623,60.065098
18.759607,60.065086
18.759592,60.065075
18.759577,60.065063
18.759562,60.065056
18.759546,60.065044
18.759531,60.065033
18.759516,60.065025
18.7595,60.065014
18.759485,60.065002
18.75947,60.064995
18.759453,60.064983
18.759434,60.064972
18.759413,60.06496
18.759394,60.06495
18.759373,60.064934
18.759356,60.064922
18.759336,60.064907
18.759317,60.064896
18.7593,60.064884
18.759281,60.06487
18.759262,60.064857
18.759241,60.064842
18.759222,60.06483
18.759203,60.064816
18.759184,60.0648
18.759165,60.064785
18.759148,60.064774
18.759129,60.06476
18.75911,60.064743
18.759087,60.064728
18.759066,60.064713
18.759045,60.0647
18.759022,60.064686
18.759,60.06467
18.758976,60.06466
18.758955,60.064648
18.75893,60.064632
18.758905,60.06462
18.758877,60.06461
18.758848,60.064598
18.75882,60.06459
18.75879,60.06458
18.75876,60.06457
18.75873,60.06456
18.758698,60.064552
18.75867,60.06455
18.758644,60.06454
18.758621,60.064537
18.7586,60.064533
18.758577,60.06453
18.758556,60.064526
18.758535,60.064518
18.75851,60.064514
18.758482,60.064507
18.758446,60.064503
18.758404,60.064495
18.75835,60.064487
18.75835,60.064487
18.758251,60.06447
18.758202,60.06446
18.758152,60.064453
18.758102,60.064445
18.758053,60.064438
18.758003,60.06443
18.757956,60.064423
18.757912,60.064415
18.757872,60.064407
18.757835,60.064396
18.757803,60.06439
18.75777,60.06438
18.757738,60.064373
18.757708,60.06437
18.757677,60.06436
18.757648,60.064358
18.75762,60.064354
18.757587,60.064346
18.757555,60.06434
18.757524,60.064335
18.757494,60.064327
18.757463,60.064323
18.757435,60.064316
18.757406,60.064312
18.757378,60.06431
18.757349,60.064304
18.757322,60.0643
18.757294,60.064297
18.757261,60.064293
18.75723,60.06429
18.757196,60.064285
18.757164,60.06428
18.75713,60.064278
18.757095,60.06427
18.75706,60.064266
18.757025,60.06426
18.75699,60.06425
18.756956,60.06424
18.756924,60.06423
18.756891,60.064224
18.756863,60.064217
18.756834,60.064213
18.756805,60.064205
18.756777,60.0642
18.756746,60.064194
18.756718,60.06419
18.756687,60.064182
18.756657,60.064175
18.756626,60.064167
18.756596,60.06416
18.756565,60.064148
18.756535,60.06414
18.756506,60.064133
18.756477,60.064125
18.756449,60.064117
18.756418,60.06411
18.756388,60.064102
18.75636,60.064095
18.756329,60.064087
18.7563,60.06408
18.75627,60.064068
18.756239,60.06406
18.75621,60.064053
18.75618,60.064045
18.756151,60.06404
18.75612,60.064034
18.756092,60.064026
18.756062,60.06402
18.756033,60.06401
18.756002,60.064003
18.755974,60.063995
18.755943,60.063988
18.75591,60.063984
18.755882,60.063976
18.755852,60.063972
18.755821,60.063965
18.755793,60.06396
18.755762,60.063953
18.755732,60.06395
18.755701,60.063946
18.75567,60.063942
18.75564,60.06394
18.75561,60.06394
18.75558,60.06394
18.75555,60.06394
18.755522,60.063934
18.755493,60.06394
18.755466,60.06394
18.75544,60.06394
18.755413,60.06394
18.755386,60.06394
18.75536,60.063934
18.755333,60.063934
18.755308,60.063934
18.755281,60.06393
18.755253,60.06393
18.755224,60.063927
18.755196,60.063927
18.755167,60.063927
18.755136,60.063927
18.755108,60.063927
18.75508,60.063927
18.755053,60.063923
18.755024,60.063923
18.754997,60.063923
18.754969,60.06392
18.75494,60.06392
18.754911,60.06392
18.754885,60.063915
18.754856,60.063915
18.75483,60.063915
18.7548,60.06391
18.754774,60.06391
18.754747,60.06391
18.754723,60.06391
18.754694,60.06391
18.75467,60.063908
18.754642,60.063908
18.754616,60.063908
18.754591,60.063908
18.754566,60.063908
18.75454,60.063904
18.754517,60.063908
18.754494,60.063908
18.754469,60.063908
18.754446,60.063908
18.754421,60.063908
18.754396,60.063908
18.754372,60.063908
18.754347,60.063908
18.754322,60.063908
18.754297,60.063908
18.754272,60.063908
18.754246,60.063908
18.754221,60.063908
18.754194,60.063908
18.754166,60.063908
18.75414,60.063908
18.754116,60.063908
18.754093,60.063908
18.754068,60.063908
18.754038,60.063908
18.75401,60.063908
18.753983,60.063908
18.753954,60.063908
18.753925,60.063908
18.753893,60.063908
18.753859,60.063908
18.75383,60.063904
18.7538,60.063904
18.753767,60.063904
18.753735,60.063904
18.7537,60.063904
18.753664,60.063904
18.753632,60.0639
18.753595,60.0639
18.75356,60.0639
18.753525,60.0639
18.753489,60.0639
18.753452,60.0639
18.753416,60.0639
18.753382,60.0639
18.753345,60.0639
18.75331,60.063904
18.753273,60.063904
18.753235,60.063904
18.7532,60.063904
18.753166,60.063904
18.753136,60.063904
18.7531,60.063904
18.753065,60.063908
18.753036,60.063908
18.753004,60.063908
18.752964,60.063908
18.752932,60.063908
18.752895,60.063908
18.752869,60.06391
18.752844,60.06391
18.752821,60.06391
18.7528,60.06391
18.752779,60.063908
18.75276,60.063908
18.752743,60.063904
18.75272,60.0639
18.752695,60.063892
18.752666,60.06388
18.75264,60.06387
18.752611,60.063854
18.752583,60.063843
18.752556,60.063824
18.752531,60.063805
18.752514,60.06379
18.752508,60.06377
18.752504,60.063755
18.752504,60.06374
18.752504,60.063725
18.752504,60.06371
18.752506,60.063698
18.752506,60.063683
18.752502,60.06367
18.752497,60.063656
18.752491,60.063644
18.752483,60.06363
18.752476,60.063618
18.752466,60.063606
18.752457,60.06359
18.752447,60.06358
18.752438,60.06357
18.752428,60.063553
18.752419,60.063538
18.75241,60.063526
18.752401,60.06351
18.752396,60.0635
18.75239,60.063484
18.752388,60.063473
18.752388,60.06346
18.752388,60.06345
18.75239,60.06344
18.752396,60.063427
18.7524,60.06341
18.752403,60.0634
18.752405,60.06339
18.752405,60.063374
18.752405,60.063362
18.752405,60.06335
18.752403,60.063335
18.752403,60.063324
18.752401,60.063313
18.752398,60.0633
18.752396,60.06329
18.752392,60.06328
18.752388,60.063267
18.752384,60.063255
18.752382,60.06324
18.75238,60.06323
18.752378,60.063217
18.752378,60.063206
18.752377,60.06319
18.752375,60.06318
18.752373,60.063168
18.75237,60.063156
18.752369,60.063145
18.752369,60.063133
18.752369,60.063126
18.752369,60.063118
18.752369,60.063107
18.752369,60.0631
18.752369,60.063087
18.752369,60.06308
18.752369,60.063072
18.752367,60.06306
18.752367,60.06305
18.752363,60.06304
18.75236,60.06303
18.752356,60.06302
18.75235,60.063007
18.752344,60.062996
18.752338,60.062984
18.75233,60.06297
18.752323,60.062958
18.752316,60.062943
18.752312,60.06293
18.75231,60.06292
18.75231,60.06291
18.752312,60.0629
18.752312,60.06289
18.752314,60.06288
18.752316,60.062874
18.752317,60.062866
18.752321,60.06286
18.752323,60.062847
18.752325,60.06284
18.752329,60.062828
18.75233,60.062817
18.75233,60.062805
18.75233,60.06279
18.752329,60.062775
18.752327,60.06276
18.752323,60.062744
18.75232,60.06273
18.752316,60.062714
18.75231,60.0627
18.752306,60.062683
18.7523,60.062668
18.752295,60.062653
18.752289,60.062637
18.752283,60.062622
18.752275,60.06261
18.75227,60.0626
18.752266,60.062588
18.752262,60.062576
18.75226,60.062565
18.752256,60.062553
18.752256,60.062542
18.752256,60.062534
18.752256,60.06252
18.752254,60.062504
18.75225,60.062485
18.752247,60.06246
18.75224,60.062435
18.752234,60.062412
18.752228,60.06239
18.75222,60.062363
18.752214,60.062344
18.752209,60.062325
18.752203,60.06231
18.752197,60.062294
18.752193,60.06228
18.75219,60.062267
18.752186,60.062256
18.752188,60.06224
18.75219,60.06223
18.752195,60.062218
18.752201,60.062206
18.752207,60.062195
18.752214,60.062187
18.752218,60.062176
18.752222,60.062164
18.752224,60.062153
18.752226,60.06214
18.752226,60.06213
18.752224,60.062115
18.75222,60.062103
18.752214,60.062088
18.752207,60.062073
18.7522,60.062057
18.752192,60.062042
18.752186,60.062023
18.75218,60.062008
18.752178,60.06199
18.752176,60.06197
18.75218,60.06195
18.752184,60.06193
18.752188,60.061913
18.75219,60.061897
18.752192,60.061882
18.752192,60.061867
18.752192,60.06185
18.75219,60.061836
18.752188,60.06182
18.752188,60.061806
18.752184,60.061794
18.75218,60.06178
18.752178,60.061764
18.752176,60.06175
18.752174,60.06173
18.752172,60.061714
18.752169,60.061695
18.752167,60.06168
18.752165,60.06166
18.752161,60.061646
18.75216,60.061626
18.752157,60.06161
18.752153,60.061592
18.75215,60.061577
18.752148,60.061558
18.752146,60.061543
18.752142,60.061523
18.752138,60.061504
18.752134,60.061485
18.752132,60.061466
18.75213,60.061447
18.752129,60.06143
18.752125,60.061413
18.752121,60.061394
18.752115,60.061375
18.75211,60.06135
18.752104,60.061325
18.752096,60.061295
18.75209,60.061268
18.752083,60.06124
18.752077,60.06121
18.75207,60.061184
18.752064,60.061153
18.752058,60.06113
18.752052,60.061104
18.752047,60.061077
18.752043,60.061054
18.752039,60.06104
18.752037,60.061028
18.752033,60.061012
18.752031,60.061
18.752031,60.06099
18.75203,60.060978
18.752028,60.060963
18.752028,60.06095
18.752026,60.060936
18.752024,60.060917
18.752022,60.0609
18.752018,60.060886
18.752014,60.060867
18.752008,60.060852
18.752003,60.060837
18.751999,60.06082
18.751997,60.06081
18.751995,60.06079
18.751993,60.060776
18.751993,60.06076
18.751995,60.060745
18.751993,60.06073
18.751991,60.06071
18.75199,60.060696
18.751984,60.060677
18.751976,60.060658
18.751966,60.060642
18.751959,60.060623
18.751951,60.060608
18.751944,60.060596
18.751938,60.06058
18.751934,60.060566
18.75193,60.060555
18.751925,60.06054
18.75192,60.060528
18.751917,60.060516
18.751913,60.060505
18.75191,60.060497
18.751907,60.06049
18.751904,60.060482
18.7519,60.060474
18.751898,60.060467
18.751894,60.060455
18.75189,60.060448
18.751888,60.060436
18.751884,60.06042
18.751879,60.06041
18.751873,60.060394
18.751865,60.060383
18.751858,60.060368
18.75185,60.060356
18.751839,60.060345
18.751822,60.060333
18.751799,60.060314
18.751768,60.06029
18.751734,60.06027
18.751696,60.06024
18.751657,60.060215
18.751616,60.06019
18.751572,60.060165
18.751528,60.06014
18.75149,60.06012
18.751455,60.06011
18.751425,60.060093
18.751398,60.06008
18.751375,60.060066
18.751352,60.06005
18.75133,60.060036
18.751307,60.060024
18.751286,60.060013
18.751263,60.060005
18.751242,60.059998
18.751219,60.05999
18.751196,60.059982
18.751173,60.059975
18.751148,60.059967
18.751123,60.05996
18.751097,60.05995
18.751068,60.059944
18.75104,60.059933
18.751009,60.059925
18.750978,60.059917
18.750946,60.05991
18.750916,60.059902
18.750885,60.059895
18.750856,60.059887
18.750828,60.05988
18.750803,60.05987
18.750778,60.059864
18.75075,60.059853
18.750723,60.059845
18.750694,60.059837
18.750668,60.05983
18.750639,60.059822
18.750612,60.059814
18.750586,60.059803
18.750559,60.059795
18.750532,60.059788
18.750505,60.05978
18.75048,60.059772
18.750454,60.059765
18.75043,60.059753
18.750402,60.059746
18.750376,60.05974
18.750349,60.05973
18.750324,60.05972
18.750296,60.05971
18.750269,60.059704
18.75024,60.059692
18.750212,60.059685
18.750181,60.059677
18.75015,60.059666
18.750124,60.059658
18.750095,60.05965
18.750067,60.05964
18.750034,60.05963
18.750004,60.059624
18.749973,60.059616
18.749943,60.059605
18.749914,60.059597
18.749884,60.05959
18.749853,60.05958
18.74982,60.05957
18.749788,60.059563
18.749754,60.059555
18.749722,60.059547
18.74969,60.05954
18.749662,60.059532
18.749636,60.059525
18.749609,60.05952
18.749584,60.059513
18.749561,60.059505
18.749537,60.059498
18.749516,60.05949
18.749493,60.059483
18.749466,60.059475
18.749437,60.059467
18.749409,60.05946
18.749382,60.059452
18.749352,60.059444
18.749323,60.059437
18.749294,60.05943
18.749266,60.05942
18.749237,60.059414
18.749208,60.059406
18.749182,60.0594
18.749155,60.05939
18.749128,60.059383
18.749102,60.059376
18.749075,60.05937
18.749046,60.05936
18.749018,60.059353
18.748987,60.059345
18.748957,60.059338
18.748926,60.05933
18.748898,60.059322
18.748869,60.059315
18.74884,60.059303
18.748812,60.0593
18.748783,60.05929
18.748753,60.059284
18.748724,60.059277
18.748693,60.05927
18.748665,60.059258
18.748636,60.05925
18.748608,60.059242
18.74858,60.059235
18.748552,60.059227
18.748526,60.05922
18.748497,60.05921
18.748472,60.059204
18.748446,60.059193
18.748419,60.059185
18.748392,60.059177
18.74837,60.05917
18.748344,60.059162
18.748322,60.059155
18.748299,60.059147
18.748278,60.059135
18.748257,60.059124
18.748236,60.059113
18.748213,60.0591
18.748188,60.05909
18.748163,60.05908
18.748142,60.059067
18.748123,60.05906
18.748112,60.05905
18.748104,60.059048
18.748098,60.059044
18.748106,60.059044
18.748123,60.059048
18.748146,60.05906
18.748177,60.05907
18.74821,60.059086
18.748247,60.059097
18.748285,60.059113
18.748323,60.059128
18.74836,60.059143
18.748396,60.059155
18.748432,60.05917
18.748468,60.059185
18.748505,60.059196
18.748537,60.059204
18.748568,60.059216
18.748596,60.059223
18.748625,60.05923
18.748655,60.05924
18.748686,60.05925
18.748714,60.059258
18.748743,60.059265
18.748774,60.059273
18.748804,60.059284
18.748835,60.05929
18.748863,60.0593
18.748894,60.05931
18.748919,60.05932
18.748947,60.059322
18.748974,60.05933
18.749002,60.059338
18.749031,60.059345
18.749063,60.05935
18.749098,60.059357
18.74914,60.05937
18.74918,60.059376
18.749224,60.059383
18.74927,60.059395
18.749317,60.059406
18.74936,60.059418
18.749397,60.05943
18.749428,60.05944
18.74945,60.05945
18.749474,60.059456
18.749498,60.059464
18.749521,60.059467
18.749546,60.05948
18.749575,60.059486
18.749603,60.059498
18.749634,60.05951
18.749664,60.05952
18.749695,60.059536
18.749727,60.059547
18.749758,60.05956
18.749788,60.059566
18.749817,60.059574
18.749844,60.05958
18.74987,60.05959
18.749897,60.059597
18.749922,60.059605
18.749945,60.059612
18.749968,60.05962
18.74999,60.05963
18.750015,60.05964
18.750042,60.059647
18.750072,60.059654
18.750103,60.059658
18.750135,60.059666
18.750168,60.059673
18.7502,60.05968
18.750233,60.059685
18.750261,60.059692
18.750286,60.0597
18.750307,60.059708
18.750324,60.059715
18.75034,60.059723
18.750359,60.059734
18.750378,60.059742
18.750402,60.059753
18.750425,60.05976
18.750454,60.059772
18.750484,60.05978
18.750517,60.059788
18.750551,60.059795
18.750584,60.059803
18.750618,60.05981
18.750652,60.05982
18.750683,60.059826
18.750713,60.05983
18.750742,60.059837
18.750772,60.05984
18.750801,60.05985
18.75083,60.059853
18.750858,60.05986
18.750885,60.059864
18.75091,60.059868
18.750935,60.05987
18.75096,60.05988
18.750982,60.059883
18.751007,60.05989
18.751032,60.0599
18.751055,60.059906
18.751078,60.059914
18.7511,60.059925
18.751123,60.059933
18.751144,60.059944
18.751167,60.05995
18.75119,60.059963
18.751213,60.059975
18.751236,60.059986
18.751259,60.059998
18.751284,60.06001
18.751308,60.06002
18.751333,60.06003
18.75136,60.060043
18.751385,60.060055
18.75141,60.060066
18.751434,60.060078
18.75146,60.06009
18.751484,60.0601
18.751509,60.060112
18.751535,60.060123
18.751558,60.060135
18.751581,60.060146
18.751604,60.060158
18.751627,60.06017
18.751652,60.060184
18.751675,60.060196
18.7517,60.060207
18.751726,60.060223
18.751749,60.060234
18.751776,60.06025
18.7518,60.06026
18.75183,60.060272
18.751858,60.060284
18.751888,60.060295
18.75192,60.060303
18.751955,60.060307
18.751987,60.06031
18.75202,60.06031
18.752052,60.060314
18.752085,60.060318
18.752117,60.06032
18.75215,60.060326
18.752182,60.06033
18.752213,60.060333
18.752245,60.060337
18.752277,60.060337
18.752308,60.06034
18.752338,60.060345
18.752369,60.060345
18.7524,60.06035
18.752432,60.06035
18.752462,60.060352
18.752493,60.060356
18.752523,60.06036
18.752556,60.060364
18.752584,60.060368
18.752613,60.060375
18.752644,60.06038
18.752674,60.060387
18.752703,60.06039
18.752733,60.0604
18.752764,60.060406
18.752794,60.060413
18.752827,60.06042
18.752861,60.060432
18.752893,60.06044
18.752926,60.06045
18.752958,60.060463
18.752985,60.06047
18.753012,60.060482
18.75304,60.06049
18.753065,60.0605
18.75309,60.06051
18.753115,60.06052
18.753138,60.06053
18.753162,60.060543
18.753187,60.060555
18.753208,60.06057
18.753233,60.06058
18.753256,60.06059
18.75328,60.0606
18.753305,60.060616
18.75333,60.060627
18.753353,60.06064
18.753374,60.060654
18.753395,60.060665
18.753418,60.060677
18.753439,60.06069
18.753466,60.060707
18.753492,60.060722
18.753521,60.06074
18.753553,60.060764
18.753593,60.060795
18.75364,60.060833
18.753696,60.060883
18.753756,60.060932
18.753813,60.060986
18.753872,60.06104
18.75393,60.061092
18.753979,60.06114
18.754017,60.061176
18.754042,60.0612
18.754059,60.06122
18.754072,60.061234
18.754082,60.061245
18.754093,60.061256
18.754103,60.061268
18.75411,60.061283
18.754118,60.061295
18.754126,60.061306
18.754131,60.06132
18.754137,60.061333
18.75414,60.061344
18.754145,60.061356
18.754148,60.061363
18.754154,60.061375
18.754158,60.061382
18.754164,60.061394
18.754168,60.061405
18.754173,60.061417
18.754177,60.061428
18.754183,60.06144
18.754187,60.06145
18.75419,60.061462
18.754192,60.061478
18.754192,60.06149
18.754192,60.0615
18.754194,60.061512
18.754194,60.061523
18.754196,60.061535
18.754198,60.061543
18.7542,60.06155
18.754202,60.06156
18.754204,60.06157
18.754206,60.061577
18.754208,60.061584
18.75421,60.061592
18.75421,60.0616
18.754208,60.061607
18.754208,60.06162
18.754206,60.061626
18.754204,60.061638
18.754202,60.061646
18.754202,60.061653
18.754202,60.061665
18.754202,60.061672
18.754202,60.06168
18.754202,60.061687
18.754204,60.061695
18.754204,60.061703
18.754202,60.061714
18.7542,60.061726
18.754196,60.061737
18.754192,60.06175
18.754189,60.06176
18.754185,60.06177
18.75418,60.061783
18.754175,60.061794
18.754171,60.061806
18.754166,60.061817
18.754162,60.06183
18.754156,60.061844
18.75415,60.061855
18.754145,60.061867
18.75414,60.061882
18.754137,60.061893
18.754133,60.06191
18.75413,60.06192
18.754124,60.061935
18.75412,60.061947
18.754116,60.061962
18.754112,60.061974
18.754107,60.061985
18.754105,60.061996
18.7541,60.062008
18.754097,60.06202
18.754093,60.062027
18.75409,60.062035
18.754084,60.062042
18.754078,60.06205
18.75407,60.06206
18.754065,60.06207
18.754057,60.062077
18.75405,60.062084
18.754044,60.062096
18.754036,60.062107
18.754032,60.062115
18.754026,60.062126
18.754025,60.062138
18.754023,60.062145
18.75402,60.062157
18.754017,60.062164
18.754015,60.062172
18.754013,60.062183
18.75401,60.06219
18.754007,60.0622
18.754005,60.062206
18.754004,60.062218
18.754002,60.062225
18.754,60.062237
18.753998,60.062244
18.753996,60.062256
18.753992,60.062267
18.753988,60.06228
18.753984,60.06229
18.75398,60.0623
18.753977,60.062313
18.753979,60.06232
18.753979,60.062332
18.75398,60.06234
18.75398,60.06235
18.75398,60.062363
18.753984,60.06237
18.753988,60.062378
18.753994,60.062386
18.753996,60.062393
18.754,60.0624
18.754,60.062412
18.754002,60.06242
18.754002,60.062428
18.754002,60.06244
18.754004,60.062447
18.754004,60.062454
18.754005,60.062466
18.754011,60.06248
18.754017,60.062496
18.754025,60.062515
18.754045,60.062542
18.75407,60.062576
18.754103,60.06262
18.754131,60.062653
18.75416,60.06269
18.754187,60.062725
18.754211,60.062756
18.754238,60.06279
18.754265,60.06282
18.75429,60.06285
18.75431,60.062874
18.754326,60.062897
18.75434,60.062912
18.754353,60.062927
18.754366,60.062943
18.754381,60.062958
18.754396,60.06297
18.754412,60.062984
18.754429,60.063
18.754444,60.063015
18.75446,60.06303
18.754477,60.063046
18.754492,60.06306
18.754505,60.063072
18.754519,60.063087
18.754532,60.063103
18.754545,60.063118
18.754559,60.063133
18.75457,60.06315
18.754583,60.06316
18.754595,60.063175
18.754606,60.06319
18.754616,60.063206
18.754625,60.06322
18.754637,60.063236
18.754646,60.06325
18.75466,60.06327
18.754671,60.063286
18.754683,60.06331
18.754698,60.063328
18.754711,60.063347
18.754728,60.063366
18.754744,60.06339
18.75476,60.063408
18.754778,60.063427
18.754795,60.063442
18.754812,60.06346
18.754827,60.063477
18.754845,60.063488
18.754862,60.063503
18.754877,60.063515
18.754892,60.063526
18.754908,60.063534
18.754921,60.063545
18.754932,60.063553
18.754946,60.06356
18.75496,60.063572
18.754972,60.06358
18.754984,60.06359
18.754997,60.0636
18.755009,60.06361
18.755028,60.06362
18.755049,60.063633
18.755068,60.063644
18.755087,60.063656
18.75511,60.063667
18.755129,60.06368
18.755146,60.06369
18.755163,60.0637
18.75518,60.063713
18.755198,60.063725
18.755217,60.063736
18.75524,60.063747
18.75526,60.06376
18.755281,60.06377
18.7553,60.06378
18.75532,60.063793
18.755337,60.063805
18.755354,60.06382
18.755371,60.06383
18.755388,60.063847
18.755405,60.06386
18.755423,60.063873
18.75544,60.06389
18.755459,60.063904
18.755478,60.063915
18.7555,60.063927
18.755522,60.06394
18.755545,60.063946
18.755571,60.06395
18.755598,60.063957
18.755627,60.06396
18.75566,60.063965
18.755697,60.06397
18.755735,60.06397
18.755775,60.063972
18.755816,60.063976
18.755854,60.06398
18.75589,60.063988
18.755926,60.063995
18.75596,60.064003
18.755991,60.06401
18.756023,60.064022
18.756056,60.06403
18.756086,60.064037
18.756117,60.06405
18.756147,60.06406
18.756184,60.06407
18.756222,60.064083
18.756258,60.064095
18.756296,60.064106
18.756332,60.064117
18.756369,60.06413
18.756405,60.06414
18.756441,60.06415
18.756477,60.064163
18.756512,60.064175
18.756546,60.064186
18.75658,60.064194
18.756613,60.064205
18.756649,60.064213
18.756683,60.06422
18.756718,60.064228
18.756752,60.06424
18.756788,60.064247
18.756826,60.064255
18.756863,60.06426
18.756899,60.064266
18.756935,60.064274
18.756973,60.06428
18.75701,60.064285
18.757048,60.064293
18.757084,60.064297
18.75712,60.064304
18.757156,60.06431
18.757193,60.064316
18.757233,60.064323
18.75727,60.064327
18.757309,60.064335
18.757347,60.064342
18.757383,60.06435
18.757421,60.064354
18.75746,60.06436
18.757496,60.06437
18.757534,60.064377
18.757572,60.064384
18.757608,60.06439
18.757647,60.064396
18.757687,60.064404
18.757725,60.06441
18.757763,60.06442
18.757803,60.064426
18.757843,60.064434
18.757881,60.06444
18.75792,60.06445
18.757957,60.064457
18.758,60.064465
18.758041,60.064472
18.758081,60.06448
18.758121,60.064487
18.758162,60.064495
18.758202,60.064503
18.758245,60.06451
18.758286,60.064514
18.75833,60.06452
18.75837,60.064526
18.75841,60.06453
18.758446,60.064537
18.758482,60.064545
18.758514,60.064552
18.758545,60.06456
18.758577,60.06457
18.75861,60.06458
18.75864,60.06459
18.758669,60.064606
18.7587,60.064617
18.758728,60.06463
18.758757,60.064644
18.758785,60.06466
18.758814,60.06467
18.758842,60.064682
18.758873,60.064693
18.758904,60.06471
18.758934,60.064716
18.758968,60.064728
18.758999,60.064743
18.759026,60.064754
18.759052,60.06477
18.75908,60.06478
18.759111,60.064793
18.75914,60.064808
18.759169,60.06482
18.759193,60.06483
18.759218,60.06485
18.759243,60.064865
18.759268,60.06488
18.759293,60.064896
18.75932,60.06491
18.759346,60.064926
18.759369,60.06494
18.759392,60.064953
18.759413,60.06497
18.759436,60.064983
18.759457,60.065
18.759476,60.065018
18.759497,60.065033
18.759518,60.065056
18.759539,60.065075
18.759558,60.065094
18.759579,60.065113
18.759598,60.065132
18.759615,60.065147
18.75963,60.06516
18.759645,60.065174
18.759659,60.065186
18.759674,60.065197
18.759691,60.065212
18.759708,60.065224
18.759727,60.06524
18.759745,60.065254
18.75976,60.065266
18.759779,60.06528
18.759796,60.065296
18.759813,60.065308
18.75983,60.065323
18.759848,60.06534
18.759865,60.06535
18.759882,60.065365
18.7599,60.06538
18.759916,60.06539
18.759935,60.065407
18.759953,60.065422
18.759972,60.065437
18.759989,60.065453
18.760008,60.065468
18.760025,60.065483
18.76004,60.0655
18.760057,60.065514
18.760073,60.065525
18.760086,60.065536
18.7601,60.065548
18.760115,60.06556
18.76013,60.06557
18.760143,60.065582
18.760155,60.065594
18.760166,60.0656
18.760174,60.065613
18.760181,60.065624
18.760187,60.06564
18.760193,60.065655
18.7602,60.06567
18.76021,60.06569
18.76022,60.06571
18.760233,60.065727
18.760246,60.065746
18.760262,60.06577
18.760277,60.06579
18.760292,60.06581
18.76031,60.06583
18.760326,60.065845
18.760344,60.06586
18.760359,60.065876
18.760372,60.065887
18.760387,60.0659
18.7604,60.06591
18.760412,60.06592
18.760422,60.065933
18.760431,60.06595
18.760437,60.065964
18.760443,60.065983
18.760447,60.066
18.76045,60.066025
18.760456,60.066048
18.760466,60.066074
18.760477,60.0661
18.760492,60.066128
18.760506,60.06615
18.760519,60.066177
18.760532,60.0662
18.760546,60.066223
18.760561,60.066246
18.760574,60.066265
18.760586,60.06628
18.760595,60.0663
18.760605,60.066315
18.760612,60.066334
18.76062,60.066357
18.76063,60.06638
18.760637,60.066402
18.760647,60.066425
18.760654,60.066452
18.760662,60.06648
18.760668,60.066505
18.760672,60.066532
18.76067,60.066555
18.76067,60.066578
18.760672,60.0666
18.760677,60.066624
18.760681,60.066647
18.760687,60.06667
18.76069,60.066696
18.760695,60.06672
18.760698,60.066746
18.7607,60.06677
18.760702,60.066795
18.760706,60.066822
18.760708,60.06685
18.76071,60.06687
18.760714,60.0669
18.76072,60.06692
18.760721,60.066944
18.760725,60.06697
18.760727,60.066994
18.76073,60.067017
18.760733,60.06704
18.760736,60.067066
18.760746,60.06709
18.760756,60.067112
18.760767,60.067135
18.760777,60.067158
18.760784,60.06718
18.760792,60.067204
18.760798,60.067226
18.760803,60.06725
18.760809,60.067272
18.760815,60.0673
18.760822,60.06732
18.76083,60.067345
18.760838,60.067368
18.760843,60.06739
18.760849,60.067413
18.760857,60.067436
18.760862,60.06746
18.760872,60.067482
18.760878,60.067505
18.760885,60.067524
18.760891,60.067547
18.760895,60.067566
18.760897,60.06758
18.7609,60.0676
18.760902,60.06762
18.760906,60.06764
18.760912,60.067657
18.760921,60.06768
18.760937,60.0677
18.760948,60.067722
18.760962,60.06774
18.760965,60.06776
18.760967,60.06778
18.760965,60.0678
18.760965,60.067814
18.760967,60.067833
18.760971,60.067852
18.760975,60.06787
18.760979,60.067894
18.760983,60.067917
18.760988,60.06794
18.760992,60.06796
18.760996,60.067978
18.761,60.067997
18.761,60.068012
18.761,60.068027
18.761,60.068043
18.761,60.06806
18.761,60.068077
18.761002,60.068096
18.761003,60.06811
18.761005,60.068127
18.761007,60.06814
18.761005,60.068153
18.761,60.068165
18.760994,60.06818
18.76098,60.06819
18.760963,60.0682
18.760946,60.06821
18.760923,60.06822
18.7609,60.068226
18.760878,60.06823
18.760853,60.068237
18.760826,60.06824
18.760798,60.068245
18.760769,60.06825
18.760738,60.068253
18.760706,60.068256
18.760672,60.068264
18.760637,60.068268
18.760601,60.06827
18.760565,60.06828
18.76053,60.068283
18.7605,60.06829
18.760471,60.068295
18.760443,60.0683
18.760414,60.068302
18.760386,60.068306
18.760359,60.06831
18.760332,60.068314
18.760303,60.068317
18.760277,60.06832
18.760248,60.068325
18.760223,60.06833
18.760199,60.068336
18.76018,60.068344
18.760164,60.06835
18.760159,60.06836
18.760162,60.068367
18.760178,60.068375
18.7602,60.06838
18.760208,60.068386
18.760218,60.06839
18.760231,60.068398
18.760248,60.0684
18.760267,60.06841
18.76029,60.068413
18.760319,60.068417
18.760315,60.068417
18.760303,60.06842
18.760286,60.06842
</coordinates></LineString></Placemark> <Placemark><name>Start</name><description>Start</description><Point><coordinates>18.757484,60.068596,16.868</coordinates></Point></Placemark><Placemark><name>End</name><description>Start</description><Point><coordinates>18.760286,60.06842,8.066</coordinates></Point></Placemark></Document> </kml>